{"type": "FeatureCollection", "features": [ {"type": "Feature", "properties": {"norad_id": 31287, "name": "FENGYUN 1C DEB", "group": "fengyun-1c-debris", "lat": 6.699799572791794, "lon": -132.75449907218052, "alt_km": 809.8294159615916, "timestamp": "2025-12-15T22:44:29.209667+00:00", "meta": {"OBJECT_NAME": "FENGYUN 1C DEB", "OBJECT_ID": "1999-025BNV", "EPOCH": "2025-12-13T09:24:00.738144", "MEAN_MOTION": 14.28031384, "ECCENTRICITY": 0.00276667, "INCLINATION": 99.4074, "RA_OF_ASC_NODE": 43.3787, "ARG_OF_PERICENTER": 61.2608, "MEAN_ANOMALY": 299.1346, "EPHEMERIS_TYPE": 0, "CLASSIFICATION_TYPE": "U", "NORAD_CAT_ID": 31287, "ELEMENT_SET_NO": 999, "REV_AT_EPOCH": 96695, "BSTAR": 0.0023568748, "MEAN_MOTION_DOT": 5.829e-05, "MEAN_MOTION_DDOT": 0}, "tle": {"line1": "1 31287U 99025BNV 25347.39167521  .00005829  00000+0  23569-2 0  9991", "line2": "2 31287  99.4074  43.3787 0027666  61.2608 299.1346 14.28031384966951"}}, "geometry": {"type": "Point", "coordinates": [-132.75449907218052, 6.699799572791794]}}, {"type": "Feature", "properties": {"norad_id": 31288, "name": "FENGYUN 1C DEB", "group": "fengyun-1c-debris", "lat": 14.025918030088652, "lon": 146.1635562349736, "alt_km": 579.3096907036988, "timestamp": "2025-12-15T22:44:29.209677+00:00", "meta": {"OBJECT_NAME": "FENGYUN 1C DEB", "OBJECT_ID": "1999-025BNW", "EPOCH": "2025-12-14T23:10:42.272256", "MEAN_MOTION": 14.95960853, "ECCENTRICITY": 0.00227737, "INCLINATION": 98.7463, "RA_OF_ASC_NODE": 147.2721, "ARG_OF_PERICENTER": 290.5551, "MEAN_ANOMALY": 199.1518, "EPHEMERIS_TYPE": 0, "CLASSIFICATION_TYPE": "U", "NORAD_CAT_ID": 31288, "ELEMENT_SET_NO": 999, "REV_AT_EPOCH": 97590, "BSTAR": 0.0032022476, "MEAN_MOTION_DOT": 0.00036167, "MEAN_MOTION_DDOT": 0}, "tle": {"line1": "1 31288U 99025BNW 25348.96576704  .00036167  00000+0  32022-2 0  9996", "line2": "2 31288  98.7463 147.2721 0022773 290.5551 199.1518 14.95960853975907"}}, "geometry": {"type": "Point", "coordinates": [146.1635562349736, 14.025918030088652]}}, {"type": "Feature", "properties": {"norad_id": 31293, "name": "FENGYUN 1C DEB", "group": "fengyun-1c-debris", "lat": -80.50878224811207, "lon": 115.2026733273821, "alt_km": 718.3549716884627, "timestamp": "2025-12-15T22:44:29.209687+00:00", "meta": {"OBJECT_NAME": "FENGYUN 1C DEB", "OBJECT_ID": "1999-025BPB", "EPOCH": "2025-12-15T06:23:47.129280", "MEAN_MOTION": 14.30813448, "ECCENTRICITY": 0.0125513, "INCLINATION": 98.4228, "RA_OF_ASC_NODE": 356.9494, "ARG_OF_PERICENTER": 237.3559, "MEAN_ANOMALY": 121.5464, "EPHEMERIS_TYPE": 0, "CLASSIFICATION_TYPE": "U", "NORAD_CAT_ID": 31293, "ELEMENT_SET_NO": 999, "REV_AT_EPOCH": 65280, "BSTAR": 8.5068727e-05, "MEAN_MOTION_DOT": 1.98e-06, "MEAN_MOTION_DDOT": 0}, "tle": {"line1": "1 31293U 99025BPB 25349.26651770  .00000198  00000+0  85069-4 0  9999", "line2": "2 31293  98.4228 356.9494 0125513 237.3559 121.5464 14.30813448652804"}}, "geometry": {"type": "Point", "coordinates": [115.2026733273821, -80.50878224811207]}}, {"type": "Feature", "properties": {"norad_id": 31294, "name": "FENGYUN 1C DEB", "group": "fengyun-1c-debris", "lat": 29.884826111547852, "lon": 170.38037246610335, "alt_km": 911.4995121390075, "timestamp": "2025-12-15T22:44:29.209697+00:00", "meta": {"OBJECT_NAME": "FENGYUN 1C DEB", "OBJECT_ID": "1999-025BPC", "EPOCH": "2025-12-14T10:24:15.522336", "MEAN_MOTION": 14.15316525, "ECCENTRICITY": 0.00995849, "INCLINATION": 98.5431, "RA_OF_ASC_NODE": 343.9742, "ARG_OF_PERICENTER": 336.2611, "MEAN_ANOMALY": 23.3986, "EPHEMERIS_TYPE": 0, "CLASSIFICATION_TYPE": "U", "NORAD_CAT_ID": 31294, "ELEMENT_SET_NO": 999, "REV_AT_EPOCH": 96877, "BSTAR": 0.00065721489, "MEAN_MOTION_DOT": 1.3e-05, "MEAN_MOTION_DDOT": 0}, "tle": {"line1": "1 31294U 99025BPC 25348.43351299  .00001300  00000+0  65721-3 0  9999", "line2": "2 31294  98.5431 343.9742 0099584 336.2611  23.3986 14.15316525968771"}}, "geometry": {"type": "Point", "coordinates": [170.38037246610335, 29.884826111547852]}}, {"type": "Feature", "properties": {"norad_id": 31295, "name": "FENGYUN 1C DEB", "group": "fengyun-1c-debris", "lat": -61.921913715565225, "lon": -21.335893465143545, "alt_km": 855.9390492681396, "timestamp": "2025-12-15T22:44:29.209708+00:00", "meta": {"OBJECT_NAME": "FENGYUN 1C DEB", "OBJECT_ID": "1999-025BPD", "EPOCH": "2025-12-15T06:06:19.987200", "MEAN_MOTION": 13.96833893, "ECCENTRICITY": 0.00768706, "INCLINATION": 98.3167, "RA_OF_ASC_NODE": 173.9512, "ARG_OF_PERICENTER": 244.1318, "MEAN_ANOMALY": 115.1907, "EPHEMERIS_TYPE": 0, "CLASSIFICATION_TYPE": "U", "NORAD_CAT_ID": 31295, "ELEMENT_SET_NO": 999, "REV_AT_EPOCH": 95538, "BSTAR": 6.0044683e-05, "MEAN_MOTION_DOT": 4.7e-07, "MEAN_MOTION_DDOT": 0}, "tle": {"line1": "1 31295U 99025BPD 25349.25439800  .00000047  00000+0  60045-4 0  9998", "line2": "2 31295  98.3167 173.9512 0076870 244.1318 115.1907 13.96833893955382"}}, "geometry": {"type": "Point", "coordinates": [-21.335893465143545, -61.921913715565225]}}, {"type": "Feature", "properties": {"norad_id": 31296, "name": "FENGYUN 1C DEB", "group": "fengyun-1c-debris", "lat": -8.357804506871508, "lon": 83.86496634847255, "alt_km": 646.5913620071933, "timestamp": "2025-12-15T22:44:29.209718+00:00", "meta": {"OBJECT_NAME": "FENGYUN 1C DEB", "OBJECT_ID": "1999-025BPE", "EPOCH": "2025-12-15T00:40:25.686912", "MEAN_MOTION": 14.71593399, "ECCENTRICITY": 0.00196722, "INCLINATION": 99.0659, "RA_OF_ASC_NODE": 264.1859, "ARG_OF_PERICENTER": 207.2481, "MEAN_ANOMALY": 152.7692, "EPHEMERIS_TYPE": 0, "CLASSIFICATION_TYPE": "U", "NORAD_CAT_ID": 31296, "ELEMENT_SET_NO": 999, "REV_AT_EPOCH": 97383, "BSTAR": 0.0024274237, "MEAN_MOTION_DOT": 0.00015111, "MEAN_MOTION_DDOT": 0}, "tle": {"line1": "1 31296U 99025BPE 25349.02807508  .00015111  00000+0  24274-2 0  9998", "line2": "2 31296  99.0659 264.1859 0019672 207.2481 152.7692 14.71593399973838"}}, "geometry": {"type": "Point", "coordinates": [83.86496634847255, -8.357804506871508]}}, {"type": "Feature", "properties": {"norad_id": 31297, "name": "FENGYUN 1C DEB", "group": "fengyun-1c-debris", "lat": 41.278656548118626, "lon": -44.99236496150891, "alt_km": 609.2307639590954, "timestamp": "2025-12-15T22:44:29.209729+00:00", "meta": {"OBJECT_NAME": "FENGYUN 1C DEB", "OBJECT_ID": "1999-025BPF", "EPOCH": "2025-12-15T09:13:26.848128", "MEAN_MOTION": 14.57091295, "ECCENTRICITY": 0.01397152, "INCLINATION": 98.9336, "RA_OF_ASC_NODE": 126.4666, "ARG_OF_PERICENTER": 114.8619, "MEAN_ANOMALY": 309.8019, "EPHEMERIS_TYPE": 0, "CLASSIFICATION_TYPE": "U", "NORAD_CAT_ID": 31297, "ELEMENT_SET_NO": 999, "REV_AT_EPOCH": 99354, "BSTAR": 0.00031484059, "MEAN_MOTION_DOT": 1.561e-05, "MEAN_MOTION_DDOT": 0}, "tle": {"line1": "1 31297U 99025BPF 25349.38433852  .00001561  00000+0  31484-3 0  9991", "line2": "2 31297  98.9336 126.4666 0139715 114.8619 309.8019 14.57091295993542"}}, "geometry": {"type": "Point", "coordinates": [-44.99236496150891, 41.278656548118626]}}, {"type": "Feature", "properties": {"norad_id": 31300, "name": "FENGYUN 1C DEB", "group": "fengyun-1c-debris", "lat": -44.33006156189498, "lon": 78.97650963965951, "alt_km": 852.8857593288885, "timestamp": "2025-12-15T22:44:29.209739+00:00", "meta": {"OBJECT_NAME": "FENGYUN 1C DEB", "OBJECT_ID": "1999-025BPJ", "EPOCH": "2025-12-15T04:25:32.415744", "MEAN_MOTION": 14.15139515, "ECCENTRICITY": 0.00601513, "INCLINATION": 99.5425, "RA_OF_ASC_NODE": 68.7029, "ARG_OF_PERICENTER": 53.2935, "MEAN_ANOMALY": 336.5733, "EPHEMERIS_TYPE": 0, "CLASSIFICATION_TYPE": "U", "NORAD_CAT_ID": 31300, "ELEMENT_SET_NO": 999, "REV_AT_EPOCH": 96209, "BSTAR": 0.00091497548, "MEAN_MOTION_DOT": 1.757e-05, "MEAN_MOTION_DDOT": 0}, "tle": {"line1": "1 31300U 99025BPJ 25349.18440296  .00001757  00000+0  91498-3 0  9992", "line2": "2 31300  99.5425  68.7029 0060151  53.2935 336.5733 14.15139515962096"}}, "geometry": {"type": "Point", "coordinates": [78.97650963965951, -44.33006156189498]}}, {"type": "Feature", "properties": {"norad_id": 31302, "name": "FENGYUN 1C DEB", "group": "fengyun-1c-debris", "lat": -61.05843067277296, "lon": 49.69266923872797, "alt_km": 813.1126467707145, "timestamp": "2025-12-15T22:44:29.209750+00:00", "meta": {"OBJECT_NAME": "FENGYUN 1C DEB", "OBJECT_ID": "1999-025BPL", "EPOCH": "2025-12-14T01:45:13.273056", "MEAN_MOTION": 14.27545035, "ECCENTRICITY": 0.00268834, "INCLINATION": 99.4142, "RA_OF_ASC_NODE": 30.2159, "ARG_OF_PERICENTER": 51.4973, "MEAN_ANOMALY": 338.337, "EPHEMERIS_TYPE": 0, "CLASSIFICATION_TYPE": "U", "NORAD_CAT_ID": 31302, "ELEMENT_SET_NO": 999, "REV_AT_EPOCH": 96377, "BSTAR": 0.0015985738, "MEAN_MOTION_DOT": 3.897e-05, "MEAN_MOTION_DDOT": 0}, "tle": {"line1": "1 31302U 99025BPL 25348.07307029  .00003897  00000+0  15986-2 0  9991", "line2": "2 31302  99.4142  30.2159 0026883  51.4973 338.3370 14.27545035963771"}}, "geometry": {"type": "Point", "coordinates": [49.69266923872797, -61.05843067277296]}}, {"type": "Feature", "properties": {"norad_id": 31303, "name": "FENGYUN 1C DEB", "group": "fengyun-1c-debris", "lat": -16.366261165537054, "lon": -176.52761380606952, "alt_km": 855.557179474612, "timestamp": "2025-12-15T22:44:29.209760+00:00", "meta": {"OBJECT_NAME": "FENGYUN 1C DEB", "OBJECT_ID": "1999-025BPM", "EPOCH": "2025-12-14T18:35:05.047872", "MEAN_MOTION": 14.11025879, "ECCENTRICITY": 0.00116967, "INCLINATION": 98.7046, "RA_OF_ASC_NODE": 4.9142, "ARG_OF_PERICENTER": 146.5551, "MEAN_ANOMALY": 213.6362, "EPHEMERIS_TYPE": 0, "CLASSIFICATION_TYPE": "U", "NORAD_CAT_ID": 31303, "ELEMENT_SET_NO": 999, "REV_AT_EPOCH": 96347, "BSTAR": 0.00015756291, "MEAN_MOTION_DOT": 2.41e-06, "MEAN_MOTION_DDOT": 0}, "tle": {"line1": "1 31303U 99025BPM 25348.77436398  .00000241  00000+0  15756-3 0  9997", "line2": "2 31303  98.7046   4.9142 0011696 146.5551 213.6362 14.11025879963476"}}, "geometry": {"type": "Point", "coordinates": [-176.52761380606952, -16.366261165537054]}}]}